{
  "type": "FeatureCollection",
  "features": [
    {
      "type": "Feature",
      "properties": {
        "norad_id": 36550,
        "name": "COSMOS 2251 DEB",
        "group": "cosmos-2251-debris",
        "lat": 58.43545076618199,
        "lon": -35.28214077905402,
        "alt_km": 807.2160286436265,
        "timestamp": "2025-12-23T22:42:33.383142+00:00",
        "meta_object_name": "COSMOS 2251 DEB",
        "meta_object_id": "1993-036BDL",
        "meta_epoch": "2025-12-18T21:01:50.103840",
        "meta_mean_motion": 14.27217133,
        "meta_eccentricity": 0.00780997,
        "meta_inclination": 74.0439,
        "meta_ra_of_asc_node": 181.6412,
        "meta_arg_of_pericenter": 230.9486,
        "meta_mean_anomaly": 128.4696,
        "meta_ephemeris_type": 0,
        "meta_classification_type": "U",
        "meta_norad_cat_id": 36550,
        "meta_element_set_no": 999,
        "meta_rev_at_epoch": 84683,
        "meta_bstar": 0.00048644345,
        "meta_mean_motion_dot": 1.202e-05,
        "meta_mean_motion_ddot": 0,
        "tle_line1": "1 36550U 93036BDL 25352.87627435  .00001202  00000+0  48644-3 0  9992",
        "tle_line2": "2 36550  74.0439 181.6412 0078099 230.9486 128.4696 14.27217133846832"
      },
      "geometry": {
        "type": "Point",
        "coordinates": [
          -35.28214077905402,
          58.43545076618199
        ]
      }
    },
    {
      "type": "Feature",
      "properties": {
        "norad_id": 36551,
        "name": "COSMOS 2251 DEB",
        "group": "cosmos-2251-debris",
        "lat": -19.917964617277494,
        "lon": -14.392560228066626,
        "alt_km": 535.8887808969439,
        "timestamp": "2025-12-23T22:42:33.383152+00:00",
        "meta_object_name": "COSMOS 2251 DEB",
        "meta_object_id": "1993-036BDM",
        "meta_epoch": "2025-12-22T06:51:38.165760",
        "meta_mean_motion": 15.02842739,
        "meta_eccentricity": 0.0050983,
        "meta_inclination": 73.8864,
        "meta_ra_of_asc_node": 355.0394,
        "meta_arg_of_pericenter": 302.5455,
        "meta_mean_anomaly": 57.0813,
        "meta_ephemeris_type": 0,
        "meta_classification_type": "U",
        "meta_norad_cat_id": 36551,
        "meta_element_set_no": 999,
        "meta_rev_at_epoch": 67075,
        "meta_bstar": 0.0014039105,
        "meta_mean_motion_dot": 0.00019365,
        "meta_mean_motion_ddot": 0,
        "tle_line1": "1 36551U 93036BDM 25356.28585840  .00019365  00000+0  14039-2 0  9994",
        "tle_line2": "2 36551  73.8864 355.0394 0050983 302.5455  57.0813 15.02842739670756"
      },
      "geometry": {
        "type": "Point",
        "coordinates": [
          -14.392560228066626,
          -19.917964617277494
        ]
      }
    },
    {
      "type": "Feature",
      "properties": {
        "norad_id": 36557,
        "name": "COSMOS 2251 DEB",
        "group": "cosmos-2251-debris",
        "lat": 60.43375482774716,
        "lon": 134.58285394174428,
        "alt_km": 641.5716188430197,
        "timestamp": "2025-12-23T22:42:33.383161+00:00",
        "meta_object_name": "COSMOS 2251 DEB",
        "meta_object_id": "1993-036BDT",
        "meta_epoch": "2025-12-22T00:57:08.479008",
        "meta_mean_motion": 14.78653832,
        "meta_eccentricity": 0.00212002,
        "meta_inclination": 73.9802,
        "meta_ra_of_asc_node": 107.9136,
        "meta_arg_of_pericenter": 260.6795,
        "meta_mean_anomaly": 99.1983,
        "meta_ephemeris_type": 0,
        "meta_classification_type": "U",
        "meta_norad_cat_id": 36557,
        "meta_element_set_no": 999,
        "meta_rev_at_epoch": 34034,
        "meta_bstar": 0.0038224462,
        "meta_mean_motion_dot": 0.00028203,
        "meta_mean_motion_ddot": 0,
        "tle_line1": "1 36557U 93036BDT 25356.03968147  .00028203  00000+0  38224-2 0  9991",
        "tle_line2": "2 36557  73.9802 107.9136 0021200 260.6795  99.1983 14.78653832340344"
      },
      "geometry": {
        "type": "Point",
        "coordinates": [
          134.58285394174428,
          60.43375482774716
        ]
      }
    },
    {
      "type": "Feature",
      "properties": {
        "norad_id": 36558,
        "name": "COSMOS 2251 DEB",
        "group": "cosmos-2251-debris",
        "lat": 26.753457925640877,
        "lon": -54.96679989050046,
        "alt_km": 703.4105014431525,
        "timestamp": "2025-12-23T22:42:33.383172+00:00",
        "meta_object_name": "COSMOS 2251 DEB",
        "meta_object_id": "1993-036BDU",
        "meta_epoch": "2025-12-21T08:58:26.792544",
        "meta_mean_motion": 14.55416575,
        "meta_eccentricity": 0.00126133,
        "meta_inclination": 74.0422,
        "meta_ra_of_asc_node": 138.1955,
        "meta_arg_of_pericenter": 226.6468,
        "meta_mean_anomaly": 133.3645,
        "meta_ephemeris_type": 0,
        "meta_classification_type": "U",
        "meta_norad_cat_id": 36558,
        "meta_element_set_no": 999,
        "meta_rev_at_epoch": 85394,
        "meta_bstar": 0.00068051983,
        "meta_mean_motion_dot": 2.933e-05,
        "meta_mean_motion_ddot": 0,
        "tle_line1": "1 36558U 93036BDU 25355.37392121  .00002933  00000+0  68052-3 0  9996",
        "tle_line2": "2 36558  74.0422 138.1955 0012613 226.6468 133.3645 14.55416575853944"
      },
      "geometry": {
        "type": "Point",
        "coordinates": [
          -54.96679989050046,
          26.753457925640877
        ]
      }
    },
    {
      "type": "Feature",
      "properties": {
        "norad_id": 36559,
        "name": "COSMOS 2251 DEB",
        "group": "cosmos-2251-debris",
        "lat": 73.01937957565336,
        "lon": 59.332357437010636,
        "alt_km": 814.4984029607176,
        "timestamp": "2025-12-23T22:42:33.383181+00:00",
        "meta_object_name": "COSMOS 2251 DEB",
        "meta_object_id": "1993-036BDV",
        "meta_epoch": "2025-12-20T23:46:37.184160",
        "meta_mean_motion": 13.9527233,
        "meta_eccentricity": 0.0261353,
        "meta_inclination": 74.1312,
        "meta_ra_of_asc_node": 355.7104,
        "meta_arg_of_pericenter": 25.9739,
        "meta_mean_anomaly": 335.4239,
        "meta_ephemeris_type": 0,
        "meta_classification_type": "U",
        "meta_norad_cat_id": 36559,
        "meta_element_set_no": 999,
        "meta_rev_at_epoch": 81209,
        "meta_bstar": 0.0030098689,
        "meta_mean_motion_dot": 5.397e-05,
        "meta_mean_motion_ddot": 0,
        "tle_line1": "1 36559U 93036BDV 25354.99070815  .00005397  00000+0  30099-2 0  9993",
        "tle_line2": "2 36559  74.1312 355.7104 0261353  25.9739 335.4239 13.95272330812092"
      },
      "geometry": {
        "type": "Point",
        "coordinates": [
          59.332357437010636,
          73.01937957565336
        ]
      }
    },
    {
      "type": "Feature",
      "properties": {
        "norad_id": 36614,
        "name": "COSMOS 2251 DEB",
        "group": "cosmos-2251-debris",
        "lat": 7.506772925351295,
        "lon": 155.33663860458162,
        "alt_km": 702.6064714062195,
        "timestamp": "2025-12-23T22:42:33.383191+00:00",
        "meta_object_name": "COSMOS 2251 DEB",
        "meta_object_id": "1993-036BEC",
        "meta_epoch": "2025-12-22T17:04:48.910944",
        "meta_mean_motion": 14.60383139,
        "meta_eccentricity": 0.00156851,
        "meta_inclination": 74.0215,
        "meta_ra_of_asc_node": 155.5311,
        "meta_arg_of_pericenter": 225.2132,
        "meta_mean_anomaly": 134.776,
        "meta_ephemeris_type": 0,
        "meta_classification_type": "U",
        "meta_norad_cat_id": 36614,
        "meta_element_set_no": 999,
        "meta_rev_at_epoch": 65758,
        "meta_bstar": 0.0015603265,
        "meta_mean_motion_dot": 7.542e-05,
        "meta_mean_motion_ddot": 0,
        "tle_line1": "1 36614U 93036BEC 25356.71167721  .00007542  00000+0  15603-2 0  9998",
        "tle_line2": "2 36614  74.0215 155.5311 0015685 225.2132 134.7760 14.60383139657581"
      },
      "geometry": {
        "type": "Point",
        "coordinates": [
          155.33663860458162,
          7.506772925351295
        ]
      }
    },
    {
      "type": "Feature",
      "properties": {
        "norad_id": 36622,
        "name": "COSMOS 2251 DEB",
        "group": "cosmos-2251-debris",
        "lat": -5.241265727279784,
        "lon": 121.99613927533807,
        "alt_km": 650.8063760799541,
        "timestamp": "2025-12-23T22:42:33.383202+00:00",
        "meta_object_name": "COSMOS 2251 DEB",
        "meta_object_id": "1993-036BEL",
        "meta_epoch": "2025-12-21T18:41:23.147232",
        "meta_mean_motion": 14.76274814,
        "meta_eccentricity": 0.00689151,
        "meta_inclination": 74.014,
        "meta_ra_of_asc_node": 127.7516,
        "meta_arg_of_pericenter": 261.4077,
        "meta_mean_anomaly": 97.9285,
        "meta_ephemeris_type": 0,
        "meta_classification_type": "U",
        "meta_norad_cat_id": 36622,
        "meta_element_set_no": 999,
        "meta_rev_at_epoch": 66883,
        "meta_bstar": 0.00067158634,
        "meta_mean_motion_dot": 4.806e-05,
        "meta_mean_motion_ddot": 0,
        "tle_line1": "1 36622U 93036BEL 25355.77874013  .00004806  00000+0  67159-3 0  9995",
        "tle_line2": "2 36622  74.0140 127.7516 0068915 261.4077  97.9285 14.76274814668837"
      },
      "geometry": {
        "type": "Point",
        "coordinates": [
          121.99613927533807,
          -5.241265727279784
        ]
      }
    }
  ]
}